[
    {
        "Altitude(m)": 707013.042506442,
        "Argument of Periapsis(deg)": 0.009112096949301655,
        "Eccentricity": 0.0,
        "Inclination(deg)": 45.0,
        "Latitude(deg)": -16.514515820750418,
        "Longitude(deg)": 87.23561111793734,
        "Mean Anomaly(deg)": -23.500726682015284,
        "RAAN(deg)": 204.99139844683341,
        "Satellite Name": "Constellation 1 922",
        "Satellite Number": 922,
        "Semi-Major Axis(m)": 7083131.272910544,
        "Time(s)": 152
    },
    {
        "Altitude(m)": 707000.7815901934,
        "Argument of Periapsis(deg)": 0.009172044955547059,
        "Eccentricity": 0.0,
        "Inclination(deg)": 45.0,
        "Latitude(deg)": -16.4732829812322,
        "Longitude(deg)": 87.27805381190424,
        "Mean Anomaly(deg)": -23.440025541765422,
        "RAAN(deg)": 204.99134185766786,
        "Satellite Name": "Constellation 1 922",
        "Satellite Number": 922,
        "Semi-Major Axis(m)": 7083131.272910544,
        "Time(s)": 153
    },
    {
        "Altitude(m)": 706988.53231716,
        "Argument of Periapsis(deg)": 0.009231992961792466,
        "Eccentricity": 0.0,
        "Inclination(deg)": 45.0,
        "Latitude(deg)": -16.43203954363875,
        "Longitude(deg)": 87.32047693653885,
        "Mean Anomaly(deg)": -23.379324401515557,
        "RAAN(deg)": 204.99128526850228,
        "Satellite Name": "Constellation 1 922",
        "Satellite Number": 922,
        "Semi-Major Axis(m)": 7083131.272910544,
        "Time(s)": 154
    },
    {
        "Altitude(m)": 706976.2947252792,
        "Argument of Periapsis(deg)": 0.009291940968037872,
        "Eccentricity": 0.0,
        "Inclination(deg)": 45.0,
        "Latitude(deg)": -16.390785539878856,
        "Longitude(deg)": 87.36288054708861,
        "Mean Anomaly(deg)": -23.318623261265696,
        "RAAN(deg)": 204.99122867933673,
        "Satellite Name": "Constellation 1 922",
        "Satellite Number": 922,
        "Semi-Major Axis(m)": 7083131.272910544,
        "Time(s)": 155
    },
    {
        "Altitude(m)": 706964.0688524302,
        "Argument of Periapsis(deg)": 0.009351888974283276,
        "Eccentricity": 0.0,
        "Inclination(deg)": 45.0,
        "Latitude(deg)": -16.34952100182344,
        "Longitude(deg)": 87.40526453067399,
        "Mean Anomaly(deg)": -23.25792212101571,
        "RAAN(deg)": 204.99117209017112,
        "Satellite Name": "Constellation 1 922",
        "Satellite Number": 922,
        "Semi-Major Axis(m)": 7083131.272910544,
        "Time(s)": 156
    },
    {
        "Altitude(m)": 706951.8547364272,
        "Argument of Periapsis(deg)": 0.00941183698052868,
        "Eccentricity": 0.0,
        "Inclination(deg)": 45.0,
        "Latitude(deg)": -16.308245961305833,
        "Longitude(deg)": 87.4476292786758,
        "Mean Anomaly(deg)": -23.197220980765877,
        "RAAN(deg)": 204.99111550100557,
        "Satellite Name": "Constellation 1 922",
        "Satellite Number": 922,
        "Semi-Major Axis(m)": 7083131.272910544,
        "Time(s)": 157
    },
    {
        "Altitude(m)": 706939.6524150275,
        "Argument of Periapsis(deg)": 0.009471784986774088,
        "Eccentricity": 0.0,
        "Inclination(deg)": 45.0,
        "Latitude(deg)": -16.26696045012156,
        "Longitude(deg)": 87.48997467815416,
        "Mean Anomaly(deg)": -23.136519840515913,
        "RAAN(deg)": 204.99105891184,
        "Satellite Name": "Constellation 1 922",
        "Satellite Number": 922,
        "Semi-Major Axis(m)": 7083131.272910544,
        "Time(s)": 158
    },
    {
        "Altitude(m)": 706927.461925929,
        "Argument of Periapsis(deg)": 0.009531732993019492,
        "Eccentricity": 0.0,
        "Inclination(deg)": 45.0,
        "Latitude(deg)": -16.225664500028945,
        "Longitude(deg)": 87.53230078423567,
        "Mean Anomaly(deg)": -23.07581870026605,
        "RAAN(deg)": 204.99100232267443,
        "Satellite Name": "Constellation 1 922",
        "Satellite Number": 922,
        "Semi-Major Axis(m)": 7083131.272910544,
        "Time(s)": 159
    },
    {
        "Altitude(m)": 706915.2833067646,
        "Argument of Periapsis(deg)": 0.009591680999264898,
        "Eccentricity": 0.0,
        "Inclination(deg)": 45.0,
        "Latitude(deg)": -16.184358142748692,
        "Longitude(deg)": 87.57460765201694,
        "Mean Anomaly(deg)": -23.015117560016087,
        "RAAN(deg)": 204.99094573350888,
        "Satellite Name": "Constellation 1 922",
        "Satellite Number": 922,
        "Semi-Major Axis(m)": 7083131.272910544,
        "Time(s)": 160
    },
    {
        "Altitude(m)": 706903.1165951086,
        "Argument of Periapsis(deg)": 0.009651629005510304,
        "Eccentricity": 0.0,
        "Inclination(deg)": 45.0,
        "Latitude(deg)": -16.143041409964475,
        "Longitude(deg)": 87.61689533656427,
        "Mean Anomaly(deg)": -22.95441641976625,
        "RAAN(deg)": 204.99088914434333,
        "Satellite Name": "Constellation 1 922",
        "Satellite Number": 922,
        "Semi-Major Axis(m)": 7083131.272910544,
        "Time(s)": 161
    },
    {
        "Altitude(m)": 706890.961828478,
        "Argument of Periapsis(deg)": 0.00971157701175571,
        "Eccentricity": 0.0,
        "Inclination(deg)": 45.0,
        "Latitude(deg)": -16.10171433332262,
        "Longitude(deg)": 87.65916389291391,
        "Mean Anomaly(deg)": -22.893715279516364,
        "RAAN(deg)": 204.99083255517772,
        "Satellite Name": "Constellation 1 922",
        "Satellite Number": 922,
        "Semi-Major Axis(m)": 7083131.272910544,
        "Time(s)": 162
    },
    {
        "Altitude(m)": 706878.8190443212,
        "Argument of Periapsis(deg)": 0.009771525018001118,
        "Eccentricity": 0.0,
        "Inclination(deg)": 45.0,
        "Latitude(deg)": -16.06037694443258,
        "Longitude(deg)": 87.70141320797495,
        "Mean Anomaly(deg)": -22.83301413926653,
        "RAAN(deg)": 204.99077596601217,
        "Satellite Name": "Constellation 1 922",
        "Satellite Number": 922,
        "Semi-Major Axis(m)": 7083131.272910544,
        "Time(s)": 163
    },
    {
        "Altitude(m)": 706866.6882800306,
        "Argument of Periapsis(deg)": 0.00983147302424652,
        "Eccentricity": 0.0,
        "Inclination(deg)": 45.0,
        "Latitude(deg)": -16.01902927486661,
        "Longitude(deg)": 87.74364367291729,
        "Mean Anomaly(deg)": -22.772312999016542,
        "RAAN(deg)": 204.99071937684658,
        "Satellite Name": "Constellation 1 922",
        "Satellite Number": 922,
        "Semi-Major Axis(m)": 7083131.272910544,
        "Time(s)": 164
    },
    {
        "Altitude(m)": 706854.5695729358,
        "Argument of Periapsis(deg)": 0.009891421030491928,
        "Eccentricity": 0.0,
        "Inclination(deg)": 45.0,
        "Latitude(deg)": -15.977671356160581,
        "Longitude(deg)": 87.7858551745896,
        "Mean Anomaly(deg)": -22.71161185876668,
        "RAAN(deg)": 204.99066278768103,
        "Satellite Name": "Constellation 1 922",
        "Satellite Number": 922,
        "Semi-Major Axis(m)": 7083131.272910544,
        "Time(s)": 165
    },
    {
        "Altitude(m)": 706842.4629603062,
        "Argument of Periapsis(deg)": 0.009951369036737332,
        "Eccentricity": 0.0,
        "Inclination(deg)": 45.0,
        "Latitude(deg)": -15.936303219813269,
        "Longitude(deg)": 87.82804776790772,
        "Mean Anomaly(deg)": -22.650910718516744,
        "RAAN(deg)": 204.99060619851548,
        "Satellite Name": "Constellation 1 922",
        "Satellite Number": 922,
        "Semi-Major Axis(m)": 7083131.272910544,
        "Time(s)": 166
    },
    {
        "Altitude(m)": 706830.3684793432,
        "Argument of Periapsis(deg)": 0.010011317042982738,
        "Eccentricity": 0.0,
        "Inclination(deg)": 45.0,
        "Latitude(deg)": -15.89492489728715,
        "Longitude(deg)": 87.870221507757,
        "Mean Anomaly(deg)": -22.590209578266855,
        "RAAN(deg)": 204.99054960934987,
        "Satellite Name": "Constellation 1 922",
        "Satellite Number": 922,
        "Semi-Major Axis(m)": 7083131.272910544,
        "Time(s)": 167
    },
    {
        "Altitude(m)": 706818.2861671946,
        "Argument of Periapsis(deg)": 0.010071265049228144,
        "Eccentricity": 0.0,
        "Inclination(deg)": 45.0,
        "Latitude(deg)": -15.853536420007982,
        "Longitude(deg)": 87.91237644899314,
        "Mean Anomaly(deg)": -22.52950843801692,
        "RAAN(deg)": 204.99049302018432,
        "Satellite Name": "Constellation 1 922",
        "Satellite Number": 922,
        "Semi-Major Axis(m)": 7083131.272910544,
        "Time(s)": 168
    },
    {
        "Altitude(m)": 706806.216060945,
        "Argument of Periapsis(deg)": 0.01013121305547355,
        "Eccentricity": 0.0,
        "Inclination(deg)": 45.0,
        "Latitude(deg)": -15.812137819365407,
        "Longitude(deg)": 87.95451264644136,
        "Mean Anomaly(deg)": -22.468807297767057,
        "RAAN(deg)": 204.99043643101876,
        "Satellite Name": "Constellation 1 922",
        "Satellite Number": 922,
        "Semi-Major Axis(m)": 7083131.272910544,
        "Time(s)": 169
    },
    {
        "Altitude(m)": 706794.1581976081,
        "Argument of Periapsis(deg)": 0.010191161061718957,
        "Eccentricity": 0.0,
        "Inclination(deg)": 45.0,
        "Latitude(deg)": -15.770729126712595,
        "Longitude(deg)": 87.99663015489702,
        "Mean Anomaly(deg)": -22.408106157517196,
        "RAAN(deg)": 204.99037984185318,
        "Satellite Name": "Constellation 1 922",
        "Satellite Number": 922,
        "Semi-Major Axis(m)": 7083131.272910544,
        "Time(s)": 170
    }
]